[{"OBJECT_NAME":"STARLINK-5265","OBJECT_ID":"2023-010BA","EPOCH":"2026-03-09T21:36:39.295584","MEAN_MOTION":14.98336373,"ECCENTRICITY":0.00028078,"INCLINATION":70.0014,"RA_OF_ASC_NODE":3.9602,"ARG_OF_PERICENTER":274.6158,"MEAN_ANOMALY":85.4681,"EPHEMERIS_TYPE":0,"CLASSIFICATION_TYPE":"U","NORAD_CAT_ID":55317,"ELEMENT_SET_NO":999,"REV_AT_EPOCH":17467,"BSTAR":-0.00016984666,"MEAN_MOTION_DOT":-2.119e-5,"MEAN_MOTION_DDOT":0},{"OBJECT_NAME":"GSLV R\/B","OBJECT_ID":"2022-138AN","EPOCH":"2026-03-09T17:17:59.229888","MEAN_MOTION":14.96774296,"ECCENTRICITY":0.00230204,"INCLINATION":87.3876,"RA_OF_ASC_NODE":166.352,"ARG_OF_PERICENTER":146.6269,"MEAN_ANOMALY":213.6419,"EPHEMERIS_TYPE":0,"CLASSIFICATION_TYPE":"U","NORAD_CAT_ID":54149,"ELEMENT_SET_NO":999,"REV_AT_EPOCH":18393,"BSTAR":0.00032104808,"MEAN_MOTION_DOT":3.719e-5,"MEAN_MOTION_DDOT":0}]
